{
    "links": {
        "self": "http://www.neowsapp.com/rest/v1/neo/54051049?api_key=iIulBulltgU6a56xZRHN4H3l9WmuAYTsLGpBGhQ2"
    },
    "id": "54051049",
    "neo_reference_id": "54051049",
    "name": "(2020 PX2)",
    "designation": "2020 PX2",
    "nasa_jpl_url": "http://ssd.jpl.nasa.gov/sbdb.cgi?sstr=54051049",
    "absolute_magnitude_h": 25.063,
    "estimated_diameter": {
        "kilometers": {
            "estimated_diameter_min": 0.025819925,
            "estimated_diameter_max": 0.0577351075
        },
        "meters": {
            "estimated_diameter_min": 25.819925011,
            "estimated_diameter_max": 57.7351074984
        },
        "miles": {
            "estimated_diameter_min": 0.0160437526,
            "estimated_diameter_max": 0.0358749215
        },
        "feet": {
            "estimated_diameter_min": 84.7110427729,
            "estimated_diameter_max": 189.4196500852
        }
    },
    "is_potentially_hazardous_asteroid": false,
    "close_approach_data": [
        {
            "close_approach_date": "1917-02-15",
            "close_approach_date_full": "1917-Feb-15 11:52",
            "epoch_date_close_approach": -1668600480000,
            "relative_velocity": {
                "kilometers_per_second": "9.0696018987",
                "kilometers_per_hour": "32650.5668354374",
                "miles_per_hour": "20287.792487275"
            },
            "miss_distance": {
                "astronomical": "0.233681963",
                "lunar": "90.902283607",
                "kilometers": "34958323.92221881",
                "miles": "21722095.218327178"
            },
            "orbiting_body": "Earth"
        },
        {
            "close_approach_date": "2020-07-31",
            "close_approach_date_full": "2020-Jul-31 21:42",
            "epoch_date_close_approach": 1596231720000,
            "relative_velocity": {
                "kilometers_per_second": "12.2019407338",
                "kilometers_per_hour": "43926.9866415626",
                "miles_per_hour": "27294.5212273643"
            },
            "miss_distance": {
                "astronomical": "0.0447942089",
                "lunar": "17.4249472621",
                "kilometers": "6701118.239775043",
                "miles": "4163881.7924318734"
            },
            "orbiting_body": "Earth"
        },
        {
            "close_approach_date": "2064-07-30",
            "close_approach_date_full": "2064-Jul-30 23:16",
            "epoch_date_close_approach": 2984685360000,
            "relative_velocity": {
                "kilometers_per_second": "11.6234725896",
                "kilometers_per_hour": "41844.5013227288",
                "miles_per_hour": "26000.5458357812"
            },
            "miss_distance": {
                "astronomical": "0.0679903429",
                "lunar": "26.4482433881",
                "kilometers": "10171210.478409623",
                "miles": "6320097.1244858774"
            },
            "orbiting_body": "Earth"
        }
    ],
    "orbital_data": {
        "orbit_id": "1",
        "orbit_determination_date": "2020-08-14 19:42:17",
        "first_observation_date": "2020-08-12",
        "last_observation_date": "2020-08-14",
        "data_arc_in_days": 2,
        "observations_used": 14,
        "orbit_uncertainty": "9",
        "minimum_orbit_intersection": ".0220785",
        "jupiter_tisserand_invariant": "5.324",
        "epoch_osculation": "2459074.5",
        "eccentricity": ".3287262551870906",
        "semi_major_axis": "1.164794930209129",
        "inclination": "16.5571925658967",
        "ascending_node_longitude": "314.275142003976",
        "orbital_period": "459.1690789552915",
        "perihelion_distance": ".7818962547405732",
        "perihelion_argument": "266.7911097972122",
        "aphelion_distance": "1.547693605677684",
        "perihelion_time": "2458995.243489596244",
        "mean_anomaly": "62.13907916070783",
        "mean_motion": ".7840249191410658",
        "equinox": "J2000",
        "orbit_class": {
            "orbit_class_type": "APO",
            "orbit_class_description": "Near-Earth asteroid orbits which cross the Earth’s orbit similar to that of 1862 Apollo",
            "orbit_class_range": "a (semi-major axis) > 1.0 AU; q (perihelion) < 1.017 AU"
        }
    },
    "is_sentry_object": false
}